NORAD_CAT_ID,OBJECT_NAME,OBJECT_TYPE,EPOCH,MEAN_MOTION,ECCENTRICITY,INCLINATION,RA_OF_ASC_NODE,ARG_OF_PERICENTER,MEAN_ANOMALY,BSTAR,MEAN_MOTION_DOT,MEAN_MOTION_DDOT,TLE_LINE0,TLE_LINE1,TLE_LINE2,SEMIMAJOR_AXIS,PERIOD,APOGEE,PERIGEE,DECAYED
51727.0,STARLINK-3532,PAYLOAD,2022-02-25 16:00:01,15.77318572,0.0001075,53.2178,119.458,63.1777,80.3781,-0.0054261,-0.00828377,0.0,0 STARLINK-3532,1 51727U 22016P   22056.66668981 -.00828377  00000-0 -54261-2 0  9995,2 51727  53.2178 119.4580 0001075  63.1777  80.3781 15.77318572  1860,6716.178000000001,91.294,338.765,337.32199999999995,0.0
51727.0,STARLINK-3532,PAYLOAD,2022-02-25 22:00:00,15.76880151,0.0001128,53.2176,118.2115,67.2554,56.4403,-0.00587,-0.0087392,0.0,0 STARLINK-3532,1 51727U 22016P   22056.91667824 -.00873920  00000-0 -58700-2 0  9994,2 51727  53.2176 118.2115 0001128  67.2554  56.4403 15.76880151  1362,6717.4230000000025,91.32,340.046,338.531,0.0
51727.0,STARLINK-3532,PAYLOAD,2022-02-26 06:00:00,15.76251008,0.0001196,53.2178,116.5538,76.1586,140.5025,-0.0060361999999999,-0.00873827,0.0,0 STARLINK-3532,1 51727U 22016P   22057.25001157 -.00873827  00000-0 -60362-2 0  9996,2 51727  53.2178 116.5538 0001196  76.1586 140.5025 15.76251008  1956,6719.2109999999975,91.356,341.879,340.272,0.0
51727.0,STARLINK-3532,PAYLOAD,2022-02-26 14:00:01,15.75620903,0.000115,53.2174,114.8995,63.0521,245.8176,-0.0061988999999999,-0.00872754,0.0,0 STARLINK-3532,1 51727U 22016P   22057.58334491 -.00872754  00000-0 -61989-2 0  9996,2 51727  53.2174 114.8995 0001150  63.0521 245.8176 15.75620903  1469,6721.002,91.393,343.64,342.094,0.0
51727.0,STARLINK-3532,PAYLOAD,2022-02-26 22:00:00,15.74991946,0.0001001,53.2174,113.2428,64.1023,336.2215,-0.0063748999999999,-0.00872926,0.0,0 STARLINK-3532,1 51727U 22016P   22057.91667824 -.00872926  00000-0 -63749-2 0  9999,2 51727  53.2174 113.2428 0001001  64.1023 336.2215 15.74991946  1520,6722.791,91.429,345.329,343.983,0.0
51727.0,STARLINK-3532,PAYLOAD,2022-02-27 06:00:00,15.74363393,0.0001333,53.2175,111.5898,50.9015,80.119,-0.0065608,-0.0087397999999999,0.0,0 STARLINK-3532,1 51727U 22016P   22058.25001157 -.00873980  00000-0 -65608-2 0  9995,2 51727  53.2175 111.5898 0001333  50.9015  80.1190 15.74363393  2106,6724.58,91.466,347.342,345.5490000000001,0.0
51727.0,STARLINK-3532,PAYLOAD,2022-02-27 14:00:01,15.73604171,0.0001347,53.2176,109.9398,56.935,164.05,-0.0039860999999999,-0.00535105,0.0,0 STARLINK-3532,1 51727U 22016P   22058.58334491 -.00535105  00000-0 -39861-2 0  9997,2 51727  53.2176 109.9398 0001347  56.9350 164.0500 15.73604171  1620,6726.743,91.51,349.514,347.702,0.0
51727.0,STARLINK-3532,PAYLOAD,2022-02-27 22:00:00,15.7320485,0.0001246,53.2177,108.2878,59.1862,250.9731,-7.9555e-06,-1.736e-05,0.0,0 STARLINK-3532,1 51727U 22016P   22058.91667824 -.00001736  00000-0 -79555-5 0  9998,2 51727  53.2177 108.2878 0001246  59.1862 250.9731 15.73204850  2214,6727.880999999999,91.533,350.585,348.908,0.0
51727.0,STARLINK-3532,PAYLOAD,2022-02-28 06:00:00,15.73344552,0.00012,53.2199,106.642,53.28,345.93800000000016,-0.0013359,-0.00185176,0.0,0 STARLINK-3532,1 51727U 22016P   22059.25001157 -.00185176  00000-0 -13359-2 0  9995,2 51727  53.2199 106.6420 0001200  53.2800 345.9380 15.73344552  2264,6727.483,91.525,350.155,348.541,0.0
51727.0,STARLINK-3532,PAYLOAD,2022-02-28 14:00:01,15.73205678,0.0001385999999999,53.2205,104.9967,55.0313,73.2105,0.0001302,0.00017695,0.0,0 STARLINK-3532,1 51727U 22016P   22059.58334491  .00017695  00000-0  13020-3 0  9995,2 51727  53.2205 104.9967 0001386  55.0313  73.2105 15.73205678  2310,6727.879,91.533,350.676,348.81199999999984,0.0
51727.0,STARLINK-3532,PAYLOAD,2022-02-28 22:00:00,15.73195126,0.000129,53.2205,103.3451,64.5121,152.6873,-0.00051256,-0.00071926,0.0,0 STARLINK-3532,1 51727U 22016P   22059.91667824 -.00071926  00000-0 -51256-3 0  9993,2 51727  53.2205 103.3451 0001290  64.5121 152.6873 15.73195126  2373,6727.909000000002,91.533,350.642,348.906,0.0
51727.0,STARLINK-3532,PAYLOAD,2022-03-01 14:00:01,15.73137142,0.0001425,53.2204,100.0487,53.3598,341.5888,0.00058149,0.00081563,0.0,0 STARLINK-3532,1 51727U 22016P   22060.58334491  .00081563  00000-0  58149-3 0  9993,2 51727  53.2204 100.0487 0001425  53.3598 341.5888 15.73137142  2479,6728.074000000001,91.537,350.898,348.981,0.0
51727.0,STARLINK-3532,PAYLOAD,2022-03-01 22:00:01,15.7316628,0.0001269,53.2204,98.3973,61.3026,62.6072,0.00052415,0.0007348,0.0,0 STARLINK-3532,1 51727U 22016P   22060.91668981  .00073480  00000-0  52415-3 0  9993,2 51727  53.2204  98.3973 0001269  61.3026  62.6072 15.73166280  1996,6727.991,91.535,350.71,349.00300000000016,0.0
51727.0,STARLINK-3532,PAYLOAD,2022-03-02 06:00:00,15.73230314,0.0001401,53.2202,96.7489,60.4097,152.3495,6.3612e-05,8.328e-05,0.0,0 STARLINK-3532,1 51727U 22016P   22061.25001157  .00008328  00000-0  63612-4 0  9998,2 51727  53.2202  96.7489 0001401  60.4097 152.3495 15.73230314  2586,6727.809,91.531,350.616,348.731,0.0
51727.0,STARLINK-3532,PAYLOAD,2022-03-02 14:00:01,15.73258523,0.0001399,53.2195,95.1005,50.8691,250.8568,-0.00018374,-0.00026391,0.0,0 STARLINK-3532,1 51727U 22016P   22061.58334491 -.00026391  00000-0 -18374-3 0  9990,2 51727  53.2195  95.1005 0001399  50.8691 250.8568 15.73258523  2108,6727.728,91.53,350.535,348.652,0.0
51727.0,STARLINK-3532,PAYLOAD,2022-03-02 22:00:00,15.7319103,0.0001211,53.2195,93.4487,60.4845,330.2387,0.00045744,0.00064044,0.0,0 STARLINK-3532,1 51727U 22016P   22061.91667824  .00064044  00000-0  45744-3 0  9992,2 51727  53.2195  93.4487 0001211  60.4845 330.2387 15.73191030  2150,6727.920999999999,91.534,350.6,348.971,0.0
51727.0,STARLINK-3532,PAYLOAD,2022-03-03 06:00:00,15.73234343,0.0001409999999999,53.2198,91.8002,59.9411,59.7273,-0.00039873,-0.00056288,0.0,0 STARLINK-3532,1 51727U 22016P   22062.25001157 -.00056288  00000-0 -39873-3 0  9990,2 51727  53.2198  91.8002 0001410  59.9411  59.7273 15.73234343  2737,6727.797,91.531,350.611,348.714,0.0
51727.0,STARLINK-3532,PAYLOAD,2022-03-03 14:00:01,15.73188795,0.0001526,53.2196,90.1518,54.1375,154.4665,0.00045278,0.00063375,0.0,0 STARLINK-3532,1 51727U 22016P   22062.58334491  .00063375  00000-0  45278-3 0  9995,2 51727  53.2196  90.1518 0001526  54.1375 154.4665 15.73188795  2257,6727.927,91.534,350.819,348.765,0.0
51727.0,STARLINK-3532,PAYLOAD,2022-03-03 18:00:00,15.7322918,0.0001137,53.2198,89.3258,45.2435,27.8565,-4.184e-05,-6.494e-05,0.0,0 STARLINK-3532,1 51727U 22016P   22062.75001157 -.00006494  00000-0 -41840-4 0  9997,2 51727  53.2198  89.3258 0001137  45.2435  27.8565 15.73229180  2814,6727.812,91.531,350.44199999999995,348.912,0.0
51727.0,STARLINK-3532,PAYLOAD,2022-03-03 22:00:00,15.73226773,0.0001091,53.2198,88.4996,51.6476,245.9358,-3.0664e-05,-4.926e-05,0.0,0 STARLINK-3532,1 51727U 22016P   22062.91667824 -.00004926  00000-0 -30664-4 0  9994,2 51727  53.2198  88.4996 0001091  51.6476 245.9358 15.73226773  2311,6727.819,91.532,350.418,348.95,0.0
51727.0,STARLINK-3532,PAYLOAD,2022-03-04 14:00:01,15.73242964,0.0001392,53.219,85.2029,46.8345,68.7411,-0.00038114,-0.00053867,0.0,0 STARLINK-3532,1 51727U 22016P   22063.58335648 -.00053867  00000-0 -38114-3 0  9999,2 51727  53.2190  85.2029 0001392  46.8345  68.7411 15.73242964  2412,6727.773,91.531,350.574,348.701,0.0
51727.0,STARLINK-3532,PAYLOAD,2022-03-04 22:00:00,15.73187399,0.0001131,53.2191,83.5514,56.4315,148.04,0.0003887,0.00054254,0.0,0 STARLINK-3532,1 51727U 22016P   22063.91667824  .00054254  00000-0  38870-3 0  9998,2 51727  53.2191  83.5514 0001131  56.4315 148.0400 15.73187399  3004,6727.931,91.534,350.557,349.035,0.0
51727.0,STARLINK-3532,PAYLOAD,2022-03-05 06:00:00,15.73210209,0.0001382,53.2195,81.9034,55.5105,237.9046,-0.00020197,-0.0002888,0.0,0 STARLINK-3532,1 51727U 22016P   22064.25001157 -.00028880  00000-0 -20197-3 0  9998,2 51727  53.2195  81.9034 0001382  55.5105 237.9046 15.73210209  2529,6727.866,91.533,350.661,348.801,0.0
51727.0,STARLINK-3532,PAYLOAD,2022-03-05 14:00:01,15.73214943,0.000139,53.2195,80.2545,48.0776,334.2797,-0.00025148,-0.00035786,0.0,0 STARLINK-3532,1 51727U 22016P   22064.58334491 -.00035786  00000-0 -25148-3 0  9998,2 51727  53.2195  80.2545 0001390  48.0776 334.2797 15.73214943  2576,6727.853,91.532,350.653,348.782,0.0
51727.0,STARLINK-3532,PAYLOAD,2022-03-05 16:00:00,15.73202756,0.000134,53.2197,79.8415,49.9153,84.6784,-0.00016711,-0.00024008,0.0,0 STARLINK-3532,1 51727U 22016P   22064.66667824 -.00024008  00000-0 -16711-3 0  9997,2 51727  53.2197  79.8415 0001340  49.9153  84.6784 15.73202756  3114,6727.887,91.533,350.654,348.851,0.0
51727.0,STARLINK-3532,PAYLOAD,2022-03-05 22:00:01,15.73195962,0.0001286999999999,53.2197,78.6031,57.1368,54.2144,-2.8704e-05,-4.645e-05,0.0,0 STARLINK-3532,1 51727U 22016P   22064.91668981 -.00004645  00000-0 -28704-4 0  9991,2 51727  53.2197  78.6031 0001287  57.1368  54.2144 15.73195962  2622,6727.906999999997,91.533,350.63800000000015,348.906,0.0
51727.0,STARLINK-3532,PAYLOAD,2022-03-06 06:00:00,15.73212208,0.000149,53.2197,76.9552,56.4295,143.8031,-7.8288e-05,-0.00011598,0.0,0 STARLINK-3532,1 51727U 22016P   22065.25001157 -.00011598  00000-0 -78288-4 0  9992,2 51727  53.2197  76.9552 0001490  56.4295 143.8031 15.73212208  3217,6727.86,91.532,350.728,348.723,0.0
51727.0,STARLINK-3532,PAYLOAD,2022-03-06 14:00:01,15.73189256,0.0001448,53.2191,75.306,51.5559,237.6186,0.00026907,0.00037292,0.0,0 STARLINK-3532,1 51727U 22016P   22065.58334491  .00037292  00000-0  26907-3 0  9995,2 51727  53.2191  75.3060 0001448  51.5559 237.6186 15.73189256  2735,6727.926,91.534,350.765,348.81699999999995,0.0
51727.0,STARLINK-3532,PAYLOAD,2022-03-06 22:00:00,15.73210443,0.0001293,53.2194,73.6548,61.2187,316.8635,2.763e-05,3.261e-05,0.0,0 STARLINK-3532,1 51727U 22016P   22065.91667824  .00003261  00000-0  27630-4 0  9995,2 51727  53.2194  73.6548 0001293  61.2187 316.8635 15.73210443  2780,6727.865,91.533,350.6,348.86,0.0
